{
  "type": "FeatureCollection",
  "features": [
    {
      "type": "Feature",
      "properties": {
        "norad_id": 28054,
        "name": "DMSP 5D-3 F16 (USA 172)",
        "group": "weather",
        "lat": -6.284056309901904,
        "lon": 13.128882172767792,
        "alt_km": 845.5132024987824,
        "timestamp": "2025-12-20T14:38:01.600246+00:00",
        "meta_object_name": "DMSP 5D-3 F16 (USA 172)",
        "meta_object_id": "2003-048A",
        "meta_epoch": "2025-12-20T04:45:56.280384",
        "meta_mean_motion": 14.14426708,
        "meta_eccentricity": 0.0006301,
        "meta_inclination": 99.0039,
        "meta_ra_of_asc_node": 11.7141,
        "meta_arg_of_pericenter": 297.1428,
        "meta_mean_anomaly": 124.0492,
        "meta_ephemeris_type": 0,
        "meta_classification_type": "U",
        "meta_norad_cat_id": 28054,
        "meta_element_set_no": 999,
        "meta_rev_at_epoch": 14418,
        "meta_bstar": 6.6526047e-05,
        "meta_mean_motion_dot": 8.2e-07,
        "meta_mean_motion_ddot": 0,
        "tle_line1": "1 28054U 03048A   25354.19856806  .00000082  00000+0  66526-4 0  9994",
        "tle_line2": "2 28054  99.0039  11.7141 0006301 297.1428 124.0492 14.14426708144186"
      },
      "geometry": {
        "type": "Point",
        "coordinates": [
          13.128882172767792,
          -6.284056309901904
        ]
      }
    },
    {
      "type": "Feature",
      "properties": {
        "norad_id": 28912,
        "name": "METEOSAT-9 (MSG-2)",
        "group": "weather",
        "lat": -7.895156183462634,
        "lon": -5.749961586651489,
        "alt_km": 35457.324151235734,
        "timestamp": "2025-12-20T14:38:01.600304+00:00",
        "meta_object_name": "METEOSAT-9 (MSG-2)",
        "meta_object_id": "2005-049B",
        "meta_epoch": "2025-12-18T20:21:29.033280",
        "meta_mean_motion": 1.00264866,
        "meta_eccentricity": 0.0082047,
        "meta_inclination": 8.9417,
        "meta_ra_of_asc_node": 55.9014,
        "meta_arg_of_pericenter": 282.314,
        "meta_mean_anomaly": 99.6592,
        "meta_ephemeris_type": 0,
        "meta_classification_type": "U",
        "meta_norad_cat_id": 28912,
        "meta_element_set_no": 999,
        "meta_rev_at_epoch": 519,
        "meta_bstar": 0,
        "meta_mean_motion_dot": 1.45e-06,
        "meta_mean_motion_ddot": 0,
        "tle_line1": "1 28912U 05049B   25352.84825270  .00000145  00000+0  00000+0 0  9991",
        "tle_line2": "2 28912   8.9417  55.9014 0082047 282.3140  99.6592  1.00264866  5196"
      },
      "geometry": {
        "type": "Point",
        "coordinates": [
          -5.749961586651489,
          -7.895156183462634
        ]
      }
    },
    {
      "type": "Feature",
      "properties": {
        "norad_id": 29522,
        "name": "DMSP 5D-3 F17 (USA 191)",
        "group": "weather",
        "lat": -51.206001603857935,
        "lon": 10.866422114714231,
        "alt_km": 851.491632925773,
        "timestamp": "2025-12-20T14:38:01.600323+00:00",
        "meta_object_name": "DMSP 5D-3 F17 (USA 191)",
        "meta_object_id": "2006-050A",
        "meta_epoch": "2025-12-20T04:41:48.184512",
        "meta_mean_motion": 14.14922703,
        "meta_eccentricity": 0.00097185,
        "meta_inclination": 98.739,
        "meta_ra_of_asc_node": 359.4295,
        "meta_arg_of_pericenter": 202.3678,
        "meta_mean_anomaly": 157.7073,
        "meta_ephemeris_type": 0,
        "meta_classification_type": "U",
        "meta_norad_cat_id": 29522,
        "meta_element_set_no": 999,
        "meta_rev_at_epoch": 98710,
        "meta_bstar": 8.7514217e-05,
        "meta_mean_motion_dot": 1.26e-06,
        "meta_mean_motion_ddot": 0,
        "tle_line1": "1 29522U 06050A   25354.19569658  .00000126  00000+0  87514-4 0  9996",
        "tle_line2": "2 29522  98.7390 359.4295 0009718 202.3678 157.7073 14.14922703987106"
      },
      "geometry": {
        "type": "Point",
        "coordinates": [
          10.866422114714231,
          -51.206001603857935
        ]
      }
    },
    {
      "type": "Feature",
      "properties": {
        "norad_id": 32958,
        "name": "FENGYUN 3A",
        "group": "weather",
        "lat": 27.72460692860862,
        "lon": 118.570686333285,
        "alt_km": 829.587386760003,
        "timestamp": "2025-12-20T14:38:01.600338+00:00",
        "meta_object_name": "FENGYUN 3A",
        "meta_object_id": "2008-026A",
        "meta_epoch": "2025-12-19T14:14:12.505056",
        "meta_mean_motion": 14.19516596,
        "meta_eccentricity": 0.0007684,
        "meta_inclination": 98.6705,
        "meta_ra_of_asc_node": 292.9758,
        "meta_arg_of_pericenter": 288.4847,
        "meta_mean_anomaly": 71.5494,
        "meta_ephemeris_type": 0,
        "meta_classification_type": "U",
        "meta_norad_cat_id": 32958,
        "meta_element_set_no": 999,
        "meta_rev_at_epoch": 90992,
        "meta_bstar": 5.2028e-05,
        "meta_mean_motion_dot": 6.6e-07,
        "meta_mean_motion_ddot": 0,
        "tle_line1": "1 32958U 08026A   25353.59320029  .00000066  00000+0  52028-4 0  9993",
        "tle_line2": "2 32958  98.6705 292.9758 0007684 288.4847  71.5494 14.19516596909928"
      },
      "geometry": {
        "type": "Point",
        "coordinates": [
          118.570686333285,
          27.72460692860862
        ]
      }
    },
    {
      "type": "Feature",
      "properties": {
        "norad_id": 35491,
        "name": "GOES 14",
        "group": "weather",
        "lat": 1.1497541728839142,
        "lon": -165.7813870782169,
        "alt_km": 35834.40612954163,
        "timestamp": "2025-12-20T14:38:01.600354+00:00",
        "meta_object_name": "GOES 14",
        "meta_object_id": "2009-033A",
        "meta_epoch": "2025-12-20T04:37:38.709696",
        "meta_mean_motion": 1.0009688,
        "meta_eccentricity": 5.111e-05,
        "meta_inclination": 1.222,
        "meta_ra_of_asc_node": 85.3313,
        "meta_arg_of_pericenter": 182.2865,
        "meta_mean_anomaly": 136.3657,
        "meta_ephemeris_type": 0,
        "meta_classification_type": "U",
        "meta_norad_cat_id": 35491,
        "meta_element_set_no": 999,
        "meta_rev_at_epoch": 479,
        "meta_bstar": 0,
        "meta_mean_motion_dot": 2e-07,
        "meta_mean_motion_ddot": 0,
        "tle_line1": "1 35491U 09033A   25354.19280914  .00000020  00000+0  00000+0 0  9990",
        "tle_line2": "2 35491   1.2220  85.3313 0000511 182.2865 136.3657  1.00096880  4796"
      },
      "geometry": {
        "type": "Point",
        "coordinates": [
          -165.7813870782169,
          1.1497541728839142
        ]
      }
    },
    {
      "type": "Feature",
      "properties": {
        "norad_id": 35951,
        "name": "DMSP 5D-3 F18 (USA 210)",
        "group": "weather",
        "lat": 8.491972991266854,
        "lon": 152.30954938369942,
        "alt_km": 850.2454580433368,
        "timestamp": "2025-12-20T14:38:01.600402+00:00",
        "meta_object_name": "DMSP 5D-3 F18 (USA 210)",
        "meta_object_id": "2009-057A",
        "meta_epoch": "2025-12-20T05:20:27.647808",
        "meta_mean_motion": 14.14773868,
        "meta_eccentricity": 0.00118873,
        "meta_inclination": 98.8842,
        "meta_ra_of_asc_node": 330.5861,
        "meta_arg_of_pericenter": 43.0701,
        "meta_mean_anomaly": 317.1401,
        "meta_ephemeris_type": 0,
        "meta_classification_type": "U",
        "meta_norad_cat_id": 35951,
        "meta_element_set_no": 999,
        "meta_rev_at_epoch": 83428,
        "meta_bstar": 0.00013112002,
        "meta_mean_motion_dot": 2.08e-06,
        "meta_mean_motion_ddot": 0,
        "tle_line1": "1 35951U 09057A   25354.22254222  .00000208  00000+0  13112-3 0  9994",
        "tle_line2": "2 35951  98.8842 330.5861 0011887  43.0701 317.1401 14.14773868834281"
      },
      "geometry": {
        "type": "Point",
        "coordinates": [
          152.30954938369942,
          8.491972991266854
        ]
      }
    },
    {
      "type": "Feature",
      "properties": {
        "norad_id": 36411,
        "name": "EWS-G2 (GOES 15)",
        "group": "weather",
        "lat": -0.8002891381433918,
        "lon": 10.366651373637225,
        "alt_km": 35793.077933032684,
        "timestamp": "2025-12-20T14:38:01.600418+00:00",
        "meta_object_name": "EWS-G2 (GOES 15)",
        "meta_object_id": "2010-008A",
        "meta_epoch": "2025-12-20T05:13:38.472096",
        "meta_mean_motion": 1.00270968,
        "meta_eccentricity": 0.00054655,
        "meta_inclination": 0.8312,
        "meta_ra_of_asc_node": 86.0872,
        "meta_arg_of_pericenter": 177.4109,
        "meta_mean_anomaly": 325.3332,
        "meta_ephemeris_type": 0,
        "meta_classification_type": "U",
        "meta_norad_cat_id": 36411,
        "meta_element_set_no": 999,
        "meta_rev_at_epoch": 5784,
        "meta_bstar": 0,
        "meta_mean_motion_dot": 6.1e-07,
        "meta_mean_motion_ddot": 0,
        "tle_line1": "1 36411U 10008A   25354.21780639  .00000061  00000+0  00000+0 0  9994",
        "tle_line2": "2 36411   0.8312  86.0872 0005465 177.4109 325.3332  1.00270968 57849"
      },
      "geometry": {
        "type": "Point",
        "coordinates": [
          10.366651373637225,
          -0.8002891381433918
        ]
      }
    }
  ]
}